[{"OBJECT_NAME":"KINEIS-3C","OBJECT_ID":"2024-172A","EPOCH":"2026-03-09T20:22:22.104480","MEAN_MOTION":14.72318845,"ECCENTRICITY":0.00034983,"INCLINATION":98.0288,"RA_OF_ASC_NODE":159.8485,"ARG_OF_PERICENTER":99.6401,"MEAN_ANOMALY":260.5202,"EPHEMERIS_TYPE":0,"CLASSIFICATION_TYPE":"U","NORAD_CAT_ID":61220,"ELEMENT_SET_NO":999,"REV_AT_EPOCH":7845,"BSTAR":0.00048160166,"MEAN_MOTION_DOT":2.996e-5,"MEAN_MOTION_DDOT":0},{"OBJECT_NAME":"COSMOS 2251 DEB","OBJECT_ID":"1993-036ASG","EPOCH":"2026-03-07T11:03:06.082848","MEAN_MOTION":14.67333372,"ECCENTRICITY":0.00349297,"INCLINATION":74.0117,"RA_OF_ASC_NODE":240.1137,"ARG_OF_PERICENTER":345.4358,"MEAN_ANOMALY":14.5801,"EPHEMERIS_TYPE":0,"CLASSIFICATION_TYPE":"U","NORAD_CAT_ID":35786,"ELEMENT_SET_NO":999,"REV_AT_EPOCH":74650,"BSTAR":0.001352784,"MEAN_MOTION_DOT":7.685e-5,"MEAN_MOTION_DDOT":0}]
